{
    "links": {
        "self": "http://www.neowsapp.com/rest/v1/neo/3788030?api_key=iIulBulltgU6a56xZRHN4H3l9WmuAYTsLGpBGhQ2"
    },
    "id": "3788030",
    "neo_reference_id": "3788030",
    "name": "(2017 UO5)",
    "designation": "2017 UO5",
    "nasa_jpl_url": "http://ssd.jpl.nasa.gov/sbdb.cgi?sstr=3788030",
    "absolute_magnitude_h": 26.9,
    "estimated_diameter": {
        "kilometers": {
            "estimated_diameter_min": 0.0110803882,
            "estimated_diameter_max": 0.0247765013
        },
        "meters": {
            "estimated_diameter_min": 11.0803882126,
            "estimated_diameter_max": 24.7765012606
        },
        "miles": {
            "estimated_diameter_min": 0.0068850319,
            "estimated_diameter_max": 0.0153953994
        },
        "feet": {
            "estimated_diameter_min": 36.3529808636,
            "estimated_diameter_max": 81.2877363957
        }
    },
    "is_potentially_hazardous_asteroid": false,
    "close_approach_data": [
        {
            "close_approach_date": "2015-01-05",
            "close_approach_date_full": "2015-Jan-05 05:29",
            "epoch_date_close_approach": 1420435740000,
            "relative_velocity": {
                "kilometers_per_second": "6.3209335118",
                "kilometers_per_hour": "22755.3606426225",
                "miles_per_hour": "14139.296172634"
            },
            "miss_distance": {
                "astronomical": "0.1472759844",
                "lunar": "57.2903579316",
                "kilometers": "22032173.568393228",
                "miles": "13690157.8343454264"
            },
            "orbiting_body": "Venus"
        },
        {
            "close_approach_date": "2017-10-19",
            "close_approach_date_full": "2017-Oct-19 16:03",
            "epoch_date_close_approach": 1508428980000,
            "relative_velocity": {
                "kilometers_per_second": "13.6348238237",
                "kilometers_per_hour": "49085.3657653733",
                "miles_per_hour": "30499.7374112676"
            },
            "miss_distance": {
                "astronomical": "0.0126275621",
                "lunar": "4.9121216569",
                "kilometers": "1889056.393452727",
                "miles": "1173805.2128205526"
            },
            "orbiting_body": "Earth"
        }
    ],
    "orbital_data": {
        "orbit_id": "2",
        "orbit_determination_date": "2019-07-17 06:12:22",
        "first_observation_date": "2017-10-21",
        "last_observation_date": "2017-10-26",
        "data_arc_in_days": 5,
        "observations_used": 37,
        "orbit_uncertainty": "7",
        "minimum_orbit_intersection": ".00404814",
        "jupiter_tisserand_invariant": "3.693",
        "epoch_osculation": "2459000.5",
        "eccentricity": ".5638835784694567",
        "semi_major_axis": "1.936707403767765",
        "inclination": "2.842472120667839",
        "ascending_node_longitude": "209.6272619684957",
        "orbital_period": "984.4517743605988",
        "perihelion_distance": ".8446299024829067",
        "perihelion_argument": "120.6850854153979",
        "aphelion_distance": "3.028784905052623",
        "perihelion_time": "2458991.278511329210",
        "mean_anomaly": "3.372167137024778",
        "mean_motion": ".3656857647839782",
        "equinox": "J2000",
        "orbit_class": {
            "orbit_class_type": "APO",
            "orbit_class_description": "Near-Earth asteroid orbits which cross the Earth’s orbit similar to that of 1862 Apollo",
            "orbit_class_range": "a (semi-major axis) > 1.0 AU; q (perihelion) < 1.017 AU"
        }
    },
    "is_sentry_object": false
}